
KUIPER-00144
1 67133U 25301A   26170.13334657  .00002851  00000+0  40293-3 0  9995
2 67133  51.9023 327.0318 0000676  98.6430 261.4609 14.79920202 28896

KUIPER-00164
1 67134U 25301B   26170.18682882  .00001894  00000+0  29932-3 0  9990
2 67134  51.9051 338.5951 0000732 210.7968 149.2950 14.76582357 28911

KUIPER-00175
1 67135U 25301C   26169.63904723  .00003743  00000+0  38681-3 0  9996
2 67135  51.8966 325.6168 0000863  70.3958 289.7103 14.92267018 28942

KUIPER-00179
1 67136U 25301D   26169.71741219  .00001489  00000+0  22425-3 0  9999
2 67136  51.9002 338.8493 0000846 119.5905 240.5142 14.79929780 28877

KUIPER-00181
1 67137U 25301E   26169.77116093 -.00015703  00000+0 -20362-2 0  9995
2 67137  51.9017 351.1351 0000731 105.1493 254.9550 14.79922656 28687

KUIPER-00183
1 67138U 25301F   26170.14418390  .00003887  00000+0  39624-3 0  9994
2 67138  51.8969 324.1201 0009674  45.1316 315.0436 14.92713941 29109

KUIPER-00184
1 67139U 25301G   26170.16175284 -.00001295  00000+0 -14084-3 0  9995
2 67139  51.9017 331.8855 0000414 115.0851 245.0155 14.79938651 29101

KUIPER-00186
1 67140U 25301H   26170.21039955  .00001950  00000+0  28467-3 0  9993
2 67140  51.9030 349.2069 0000429 104.2498 255.8512 14.79936392 28599

KUIPER-00187
1 67141U 25301J   26170.00512131 -.00000329  00000+0 -14170-4 0  9991
2 67141  51.9031 352.6343 0000632  86.7917 273.3118 14.79932688 28524

KUIPER-00188
1 67142U 25301K   26170.14147799  .00002927  00000+0  41274-3 0  9999
2 67142  51.9040 319.6229 0000541 103.3466 256.7557 14.79933137 28998

KUIPER-00191
1 67143U 25301L   26170.18202959  .00001436  00000+0  21734-3 0  9997
2 67143  51.9020 344.3495 0000677 102.1357 257.9681 14.79926875 28681

KUIPER-00196
1 67144U 25301M   26170.25002315  .00002479  00000+0  33859-3 0  9999
2 67144  51.8978 299.9223 0001025  19.7469 207.5890 14.81864332  5424

KUIPER-00204
1 67145U 25301N   26169.70549876  .00002904  00000+0  41018-3 0  9995
2 67145  51.9026 318.9410 0000559 151.1172 208.9821 14.79894400 29086

KUIPER-00210
1 67146U 25301P   26169.74308402  .00000967  00000+0  15578-3 0  9997
2 67146  51.9004 346.2421 0000555 111.7438 248.3583 14.79930429 28761

KUIPER-00221
1 67147U 25301Q   26170.24147058 -.00000081  00000+0  18364-4 0  9998
2 67147  51.9019 351.5571 0000679 111.4161 248.6874 14.79932097 28567

KUIPER-00232
1 67148U 25301R   26170.29142360  .00002733  00000+0  38734-3 0  9992
2 67148  51.9004 336.3691 0000668 113.5866 246.5167 14.79929578 28774

KUIPER-00241
1 67149U 25301S   26170.17933510  .00002109  00000+0  30559-3 0  9999
2 67149  51.9033 346.8542 0000545 109.4452 250.6570 14.79934815 28951

KUIPER-00245
1 67150U 25301T   26170.23877861  .00002802  00000+0  39640-3 0  9994
2 67150  51.9039 354.1027 0000666 122.9533 237.1494 14.79936152 28527

STARLINK-35685
1 67128U 25299AC  26170.13236530  .00013206  00000+0  48827-3 0  9993
2 67128  43.0067 315.8380 0003101 288.3804  71.6710 15.27598877 28632

STARLINK-36124
1 67121U 25299V   26170.09653896  .00015048  00000+0  55506-3 0  9997
2 67121  43.0005 316.4203 0002117 279.7540  80.3072 15.27590160 28629

STARLINK-36151
1 67123U 25299X   26170.25002315  .00022372  00000+0  82037-3 0  9998
2 67123  43.0034 315.2522 0002118 267.6234 344.8390 15.27566755  5866

STARLINK-36164
1 67127U 25299AB  26170.12980415  .00013614  00000+0  50339-3 0  9993
2 67127  43.0034 315.8115 0001834 278.5909  81.4735 15.27575799 28633

STARLINK-36188
1 67122U 25299W   26170.10424804  .00014423  00000+0  53263-3 0  9999
2 67122  43.0030 316.4832 0000945 288.7933  71.2816 15.27580086 28620

STARLINK-36194
1 67130U 25299AE  26169.75547218  .00014806  00000+0  54607-3 0  9990
2 67130  43.0017 318.1603 0001690 267.9060  92.1598 15.27605451 28574

STARLINK-36195
1 67124U 25299Y   26170.11695451  .00018875  00000+0  69360-3 0  9990
2 67124  43.0006 315.7159 0001125 268.4845  91.5878 15.27582795 28630

STARLINK-36214
1 67129U 25299AD  26170.11324513  .00024819  00000+0  90857-3 0  9993
2 67129  43.0020 316.5481 0001010 264.4935  95.5802 15.27573826 28622

STARLINK-36217
1 67120U 25299U   26170.11068197  .00028019  00000+0  10234-2 0  9993
2 67120  43.0053 316.5285 0000891 280.7508  79.3244 15.27594014 28626

STARLINK-36219
1 67125U 25299Z   26169.75932520  .00013013  00000+0  48144-3 0  9996
2 67125  43.0009 318.1882 0001537 270.5396  89.5280 15.27590066 28573

STARLINK-36223
1 67126U 25299AA  26169.75161580  .00016988  00000+0  62517-3 0  9991
2 67126  43.0012 318.1274 0001745 274.0003  86.0649 15.27593048 28572

ZIYUAN 3-04 (ZY 3-04)
1 67131U 25300A   26170.20284289  .00003308  00000+0  15077-3 0  9995
2 67131  97.4731 248.0907 0006146 310.6961  49.3740 15.21349347 28145
