OBJECT_NAME,OBJECT_ID,EPOCH,MEAN_MOTION,ECCENTRICITY,INCLINATION,RA_OF_ASC_NODE,ARG_OF_PERICENTER,MEAN_ANOMALY,EPHEMERIS_TYPE,CLASSIFICATION_TYPE,NORAD_CAT_ID,ELEMENT_SET_NO,REV_AT_EPOCH,BSTAR,MEAN_MOTION_DOT,MEAN_MOTION_DDOT
STARLINK-36217,2025-299U,2026-06-19T02:39:22.922208,15.27594014,.00008916,43.0053,316.5285,280.7508,79.3244,0,U,67120,999,2862,.10234385E-2,.28019E-3,0
STARLINK-36124,2025-299V,2026-06-19T02:19:00.966144,15.27590160,.00021177,43.0005,316.4203,279.7540,80.3072,0,U,67121,999,2862,.55505621E-3,.15048E-3,0
STARLINK-36188,2025-299W,2026-06-19T02:30:07.030656,15.27580086,.0000945,43.0030,316.4832,288.7933,71.2816,0,U,67122,999,2862,.53262502E-3,.14423E-3,0
STARLINK-36151,2025-299X,2026-06-19T06:00:02.000160,15.27566755,.00021188,43.0034,315.2522,267.6234,344.8390,0,U,67123,999,586,.82036828E-3,.22372E-3,0
STARLINK-36195,2025-299Y,2026-06-19T02:48:24.869664,15.27582795,.00011259,43.0006,315.7159,268.4845,91.5878,0,U,67124,999,2863,.69360146E-3,.18875E-3,0
STARLINK-36219,2025-299Z,2026-06-18T18:13:25.697280,15.27590066,.00015378,43.0009,318.1882,270.5396,89.5280,0,U,67125,999,2857,.48143717E-3,.13013E-3,0
STARLINK-36223,2025-299AA,2026-06-18T18:02:19.605120,15.27593048,.00017458,43.0012,318.1274,274.0003,86.0649,0,U,67126,999,2857,.62516583E-3,.16988E-3,0
STARLINK-36164,2025-299AB,2026-06-19T03:06:55.078560,15.27575799,.00018344,43.0034,315.8115,278.5909,81.4735,0,U,67127,999,2863,.50338777E-3,.13614E-3,0
STARLINK-35685,2025-299AC,2026-06-19T03:10:36.361920,15.27598877,.00031015,43.0067,315.8380,288.3804,71.6710,0,U,67128,999,2863,.48827245E-3,.13206E-3,0
STARLINK-36214,2025-299AD,2026-06-19T02:43:04.379232,15.27573826,.00010108,43.0020,316.5481,264.4935,95.5802,0,U,67129,999,2862,.90857094E-3,.24819E-3,0
STARLINK-36194,2025-299AE,2026-06-18T18:07:52.796352,15.27605451,.00016903,43.0017,318.1603,267.9060,92.1598,0,U,67130,999,2857,.54606676E-3,.14806E-3,0
ZIYUAN 3-04 (ZY 3-04),2025-300A,2026-06-19T04:52:05.625696,15.21349347,.00061467,97.4731,248.0907,310.6961,49.3740,0,U,67131,999,2814,.15076525E-3,.3308E-4,0
KUIPER-00144,2025-301A,2026-06-19T03:12:01.143648,14.79920202,.00006765,51.9023,327.0318,98.6430,261.4609,0,U,67133,999,2889,.40292516E-3,.2851E-4,0
KUIPER-00164,2025-301B,2026-06-19T04:29:02.010048,14.76582357,.00007326,51.9051,338.5951,210.7968,149.2950,0,U,67134,999,2891,.29932402E-3,.1894E-4,0
KUIPER-00175,2025-301C,2026-06-18T15:20:13.680672,14.92267018,.00008637,51.8966,325.6168,70.3958,289.7103,0,U,67135,999,2894,.38681032E-3,.3743E-4,0
KUIPER-00179,2025-301D,2026-06-18T17:13:04.413216,14.79929780,.00008468,51.9002,338.8493,119.5905,240.5142,0,U,67136,999,2887,.22425014E-3,.1489E-4,0
KUIPER-00181,2025-301E,2026-06-18T18:30:28.304352,14.79922656,.00007316,51.9017,351.1351,105.1493,254.9550,0,U,67137,999,2868,-.20361682E-2,-.15703E-3,0
KUIPER-00183,2025-301F,2026-06-19T03:27:37.488960,14.92713941,.00096746,51.8969,324.1201,45.1316,315.0436,0,U,67138,999,2910,.39624369E-3,.3887E-4,0
KUIPER-00184,2025-301G,2026-06-19T03:52:55.445376,14.79938651,.00004143,51.9017,331.8855,115.0851,245.0155,0,U,67139,999,2910,-.1408397E-3,-.1295E-4,0
KUIPER-00186,2025-301H,2026-06-19T05:02:58.521120,14.79936392,.00004292,51.9030,349.2069,104.2498,255.8512,0,U,67140,999,2859,.28466736E-3,.195E-4,0
KUIPER-00187,2025-301J,2026-06-19T00:07:22.481184,14.79932688,.00006328,51.9031,352.6343,86.7917,273.3118,0,U,67141,999,2852,-.14170077E-4,-.329E-5,0
KUIPER-00188,2025-301K,2026-06-19T03:23:43.698336,14.79933137,.00005411,51.9040,319.6229,103.3466,256.7557,0,U,67142,999,2899,.41273866E-3,.2927E-4,0
KUIPER-00191,2025-301L,2026-06-19T04:22:07.356576,14.79926875,.00006775,51.9020,344.3495,102.1357,257.9681,0,U,67143,999,2868,.21734007E-3,.1436E-4,0
KUIPER-00196,2025-301M,2026-06-19T06:00:02.000160,14.81864332,.00010253,51.8978,299.9223,19.7469,207.5890,0,U,67144,999,542,.33859304E-3,.2479E-4,0
KUIPER-00204,2025-301N,2026-06-18T16:55:55.092864,14.79894400,.00005595,51.9026,318.9410,151.1172,208.9821,0,U,67145,999,2908,.41018172E-3,.2904E-4,0
KUIPER-00210,2025-301P,2026-06-18T17:50:02.459328,14.79930429,.0000555,51.9004,346.2421,111.7438,248.3583,0,U,67146,999,2876,.15577771E-3,.967E-5,0
KUIPER-00221,2025-301Q,2026-06-19T05:47:43.058112,14.79932097,.0000679,51.9019,351.5571,111.4161,248.6874,0,U,67147,999,2856,.18363702E-4,-.81E-6,0
KUIPER-00232,2025-301R,2026-06-19T06:59:38.999040,14.79929578,.00006684,51.9004,336.3691,113.5866,246.5167,0,U,67148,999,2877,.38733948E-3,.2733E-4,0
KUIPER-00241,2025-301S,2026-06-19T04:18:14.552640,14.79934815,.00005456,51.9033,346.8542,109.4452,250.6570,0,U,67149,999,2895,.30558919E-3,.2109E-4,0
KUIPER-00245,2025-301T,2026-06-19T05:43:50.471904,14.79936152,.00006666,51.9039,354.1027,122.9533,237.1494,0,U,67150,999,2852,.39640371E-3,.2802E-4,0
